[
    {
        "Altitude(m)": 585320.1217640794,
        "Argument of Periapsis(deg)": -0.015068773855314936,
        "Eccentricity": 0.0,
        "Inclination(deg)": 97.0,
        "Latitude(deg)": -56.51889390094298,
        "Longitude(deg)": -60.91349883638263,
        "Mean Anomaly(deg)": 303.07839551279164,
        "RAAN(deg)": 30.003964702412336,
        "Satellite Name": "Starlink Shell 3 1687",
        "Satellite Number": 1687,
        "Semi-Major Axis(m)": 6938478.169268562,
        "Time(s)": 380
    },
    {
        "Altitude(m)": 585096.6327494114,
        "Argument of Periapsis(deg)": -0.015465320535717962,
        "Eccentricity": 0.0,
        "Inclination(deg)": 97.0,
        "Latitude(deg)": -55.911467884465615,
        "Longitude(deg)": -61.199175893230134,
        "Mean Anomaly(deg)": 303.7038717104967,
        "RAAN(deg)": 30.004069036686346,
        "Satellite Name": "Starlink Shell 3 1687",
        "Satellite Number": 1687,
        "Semi-Major Axis(m)": 6938478.169268562,
        "Time(s)": 390
    },
    {
        "Altitude(m)": 584870.7438358909,
        "Argument of Periapsis(deg)": -0.015861867216120987,
        "Eccentricity": 0.0,
        "Inclination(deg)": 97.0,
        "Latitude(deg)": -55.30349010478535,
        "Longitude(deg)": -61.47735554410298,
        "Mean Anomaly(deg)": 304.3293479082017,
        "RAAN(deg)": 30.004173370960352,
        "Satellite Name": "Starlink Shell 3 1687",
        "Satellite Number": 1687,
        "Semi-Major Axis(m)": 6938478.169268562,
        "Time(s)": 400
    },
    {
        "Altitude(m)": 584642.5453977493,
        "Argument of Periapsis(deg)": -0.01625841389652401,
        "Eccentricity": 0.0,
        "Inclination(deg)": 97.0,
        "Latitude(deg)": -54.69498401378827,
        "Longitude(deg)": -61.748423730103084,
        "Mean Anomaly(deg)": 304.95482410590677,
        "RAAN(deg)": 30.00427770523436,
        "Satellite Name": "Starlink Shell 3 1687",
        "Satellite Number": 1687,
        "Semi-Major Axis(m)": 6938478.169268562,
        "Time(s)": 410
    },
    {
        "Altitude(m)": 584412.1286749017,
        "Argument of Periapsis(deg)": -0.016654960576927034,
        "Eccentricity": 0.0,
        "Inclination(deg)": 97.0,
        "Latitude(deg)": -54.08597148307054,
        "Longitude(deg)": -62.0127416465674,
        "Mean Anomaly(deg)": 305.5803003036118,
        "RAAN(deg)": 30.00438203950838,
        "Satellite Name": "Starlink Shell 3 1687",
        "Satellite Number": 1687,
        "Semi-Major Axis(m)": 6938478.169268562,
        "Time(s)": 420
    },
    {
        "Altitude(m)": 584179.5857328924,
        "Argument of Periapsis(deg)": -0.01705150725733006,
        "Eccentricity": 0.0,
        "Inclination(deg)": 97.0,
        "Latitude(deg)": -53.47647293615446,
        "Longitude(deg)": -62.27064725232818,
        "Mean Anomaly(deg)": 306.20577650131685,
        "RAAN(deg)": 30.004486373782377,
        "Satellite Name": "Starlink Shell 3 1687",
        "Satellite Number": 1687,
        "Semi-Major Axis(m)": 6938478.169268562,
        "Time(s)": 430
    },
    {
        "Altitude(m)": 583945.0094223921,
        "Argument of Periapsis(deg)": -0.017448053937733084,
        "Eccentricity": 0.0,
        "Inclination(deg)": 97.0,
        "Latitude(deg)": -52.86650746814293,
        "Longitude(deg)": -62.52245659235399,
        "Mean Anomaly(deg)": 306.8312526990219,
        "RAAN(deg)": 30.004590708056394,
        "Satellite Name": "Starlink Shell 3 1687",
        "Satellite Number": 1687,
        "Semi-Major Axis(m)": 6938478.169268562,
        "Time(s)": 440
    },
    {
        "Altitude(m)": 583708.4933383516,
        "Argument of Periapsis(deg)": -0.017844600618136107,
        "Eccentricity": 0.0,
        "Inclination(deg)": 97.0,
        "Latitude(deg)": -52.25609295417322,
        "Longitude(deg)": -62.76846646621451,
        "Mean Anomaly(deg)": 307.45672889672693,
        "RAAN(deg)": 30.004695042330404,
        "Satellite Name": "Starlink Shell 3 1687",
        "Satellite Number": 1687,
        "Semi-Major Axis(m)": 6938478.169268562,
        "Time(s)": 450
    },
    {
        "Altitude(m)": 583470.1317787168,
        "Argument of Periapsis(deg)": -0.018241147298539134,
        "Eccentricity": 0.0,
        "Inclination(deg)": 97.0,
        "Latitude(deg)": -51.645246147859346,
        "Longitude(deg)": -63.00895543391395,
        "Mean Anomaly(deg)": 308.082205094432,
        "RAAN(deg)": 30.00479937660441,
        "Satellite Name": "Starlink Shell 3 1687",
        "Satellite Number": 1687,
        "Semi-Major Axis(m)": 6938478.169268562,
        "Time(s)": 460
    },
    {
        "Altitude(m)": 583230.0197028278,
        "Argument of Periapsis(deg)": -0.018637693978942157,
        "Eccentricity": 0.0,
        "Inclination(deg)": 97.0,
        "Latitude(deg)": -51.033982770778046,
        "Longitude(deg)": -63.244184687283365,
        "Mean Anomaly(deg)": 308.70768129213707,
        "RAAN(deg)": 30.00490371087842,
        "Satellite Name": "Starlink Shell 3 1687",
        "Satellite Number": 1687,
        "Semi-Major Axis(m)": 6938478.169268562,
        "Time(s)": 470
    },
    {
        "Altitude(m)": 582988.2526894343,
        "Argument of Periapsis(deg)": -0.019034240659345183,
        "Eccentricity": 0.0,
        "Inclination(deg)": 97.0,
        "Latitude(deg)": -50.42231759392491,
        "Longitude(deg)": -63.47440031338623,
        "Mean Anomaly(deg)": 309.3331574898421,
        "RAAN(deg)": 30.00500804515243,
        "Satellite Name": "Starlink Shell 3 1687",
        "Satellite Number": 1687,
        "Semi-Major Axis(m)": 6938478.169268562,
        "Time(s)": 480
    },
    {
        "Altitude(m)": 582744.9268944239,
        "Argument of Periapsis(deg)": -0.019430787339748207,
        "Eccentricity": 0.0,
        "Inclination(deg)": 97.0,
        "Latitude(deg)": -49.81026451196182,
        "Longitude(deg)": -63.69983393623927,
        "Mean Anomaly(deg)": 309.9586336875472,
        "RAAN(deg)": 30.005112379426436,
        "Satellite Name": "Starlink Shell 3 1687",
        "Satellite Number": 1687,
        "Semi-Major Axis(m)": 6938478.169268562,
        "Time(s)": 490
    },
    {
        "Altitude(m)": 582500.1390082214,
        "Argument of Periapsis(deg)": -0.019827334020151237,
        "Eccentricity": 0.0,
        "Inclination(deg)": 97.0,
        "Latitude(deg)": -49.19783661098149,
        "Longitude(deg)": -63.92070326044692,
        "Mean Anomaly(deg)": 310.58410988525225,
        "RAAN(deg)": 30.005216713700445,
        "Satellite Name": "Starlink Shell 3 1687",
        "Satellite Number": 1687,
        "Semi-Major Axis(m)": 6938478.169268562,
        "Time(s)": 500
    },
    {
        "Altitude(m)": 582253.9862128883,
        "Argument of Periapsis(deg)": -0.020223880700554257,
        "Eccentricity": 0.0,
        "Inclination(deg)": 97.0,
        "Latitude(deg)": -48.58504623043643,
        "Longitude(deg)": -64.13721403917067,
        "Mean Anomaly(deg)": 311.2095860829572,
        "RAAN(deg)": 30.005321047974455,
        "Satellite Name": "Starlink Shell 3 1687",
        "Satellite Number": 1687,
        "Semi-Major Axis(m)": 6938478.169268562,
        "Time(s)": 510
    },
    {
        "Altitude(m)": 582006.5661389779,
        "Argument of Periapsis(deg)": -0.020620427380957283,
        "Eccentricity": 0.0,
        "Inclination(deg)": 97.0,
        "Latitude(deg)": -47.97190501980161,
        "Longitude(deg)": -64.34956044919578,
        "Mean Anomaly(deg)": 311.83506228066227,
        "RAAN(deg)": 30.00542538224846,
        "Satellite Name": "Starlink Shell 3 1687",
        "Satellite Number": 1687,
        "Semi-Major Axis(m)": 6938478.169268562,
        "Time(s)": 520
    },
    {
        "Altitude(m)": 581757.9768221067,
        "Argument of Periapsis(deg)": -0.021016974061360306,
        "Eccentricity": 0.0,
        "Inclination(deg)": 97.0,
        "Latitude(deg)": -47.35842399048379,
        "Longitude(deg)": -64.55792539357196,
        "Mean Anomaly(deg)": 312.4605384783673,
        "RAAN(deg)": 30.00552971652247,
        "Satellite Name": "Starlink Shell 3 1687",
        "Satellite Number": 1687,
        "Semi-Major Axis(m)": 6938478.169268562,
        "Time(s)": 530
    },
    {
        "Altitude(m)": 581508.3166593196,
        "Argument of Periapsis(deg)": -0.021413520741763333,
        "Eccentricity": 0.0,
        "Inclination(deg)": 97.0,
        "Latitude(deg)": -46.74461356343039,
        "Longitude(deg)": -64.76248225150421,
        "Mean Anomaly(deg)": 313.08601467607235,
        "RAAN(deg)": 30.005634050796484,
        "Satellite Name": "Starlink Shell 3 1687",
        "Satellite Number": 1687,
        "Semi-Major Axis(m)": 6938478.169268562,
        "Time(s)": 540
    },
    {
        "Altitude(m)": 581257.6843652178,
        "Argument of Periapsis(deg)": -0.021810067422166356,
        "Eccentricity": 0.0,
        "Inclination(deg)": 97.0,
        "Latitude(deg)": -46.130483612843314,
        "Longitude(deg)": -64.96339505582722,
        "Mean Anomaly(deg)": 313.7114908737774,
        "RAAN(deg)": 30.005738385070487,
        "Satellite Name": "Starlink Shell 3 1687",
        "Satellite Number": 1687,
        "Semi-Major Axis(m)": 6938478.169268562,
        "Time(s)": 550
    },
    {
        "Altitude(m)": 581006.1789279175,
        "Argument of Periapsis(deg)": -0.022206614102569383,
        "Eccentricity": 0.0,
        "Inclination(deg)": 97.0,
        "Latitude(deg)": -45.51604350636057,
        "Longitude(deg)": -65.16081861639796,
        "Mean Anomaly(deg)": 314.33696707148243,
        "RAAN(deg)": 30.0058427193445,
        "Satellite Name": "Starlink Shell 3 1687",
        "Satellite Number": 1687,
        "Semi-Major Axis(m)": 6938478.169268562,
        "Time(s)": 560
    }
]